#dP2022  9 12  0  0  0.00000000      96 __u+U ITR00 FIT  IAC
## 2227  86400.00000000   900.00000000 59834 0.0000000000000
+  116   C06C07C08C09C10C11C12C13C14C16C19C20C21C22C23C24C25
+        C26C27C28C29C30C32C33C34C35C36C37C38C39C40C41C42C43
+        C44C45C46E01E02E03E04E05E07E08E09E10E11E12E13E14E15
+        E18E19E21E24E25E26E27E30E31E33E34E36G01G02G03G04G05
+        G06G07G08G09G10G11G12G13G14G15G16G17G18G19G20G21G22
+        G24G25G26G27G28G29G30G31G32J02J03R01R02R03R04R05R07
+        R08R09R11R12R13R14R15R17R18R19R20R21R24R25  0  0  0
++         0  0  0  0  0  0  0  0  0  0  0  0  0  0  0  0  0
++         0  0  0  0  0  0  0  0  0  0  0  0  0  0  0  0  0
++         0  0  0  0  0  0  0  0  0  0  0  0  0  0  0  0  0
++         0  0  0  0  0  0  0  0  0  0  0  0  0  0  0  0  0
++         0  0  0  0  0  0  0  0  0  0  0  0  0  0  0  0  0
++         0  0  0  0  0  0  0  0  0  0  0  0  0  0  0  0  0
++         0  0  0  0  0  0  0  0  0  0  0  0  0  0  0  0  0
%c M  cc GPS ccc cccc cccc cccc cccc ccccc ccccc ccccc ccccc
%c cc cc ccc ccc cccc cccc cccc cccc ccccc ccccc ccccc ccccc
%f  0.0000000  0.000000000  0.00000000000  0.000000000000000
%f  0.0000000  0.000000000  0.00000000000  0.000000000000000
%i    0    0    0    0      0      0      0      0         0
%i    0    0    0    0      0      0      0      0         0
/* INFORMATION & ANALYSIS CENTER (IAC)      ULTRA-RAPID DATA
/* S/V CLOCKS ARE ALIGNED TO GNSS TIME                      
/* G:C1WC2W R:C1PC2P E:C1XC5X C:C2IC6I J:C1CC2S             
/* PCV:IGS14_2218 OL/AL:FES2004  NONE     YN ORB:CoN CLK:CoN
*  2022 09 12 14 45  0.00000000
PC06 -18948.995915  32097.416900  19497.071954    822.349785
PC07  -5277.238322  38226.132378  17229.359825   -131.471402
PC08  -5716.289981  20092.092872 -36631.253140    469.219297
PC09 -10596.463011  30744.557742  26933.527618   -865.911286
PC10    509.646744  40879.114997  11650.482207     97.600269
PC11 -12273.179799  21882.435475 -12195.662378   -413.245543
PC12 -22275.083688  16070.606530   5043.069190   -520.721095
PC13   2215.925344  23564.095482 -34734.058347     78.557361
PC14  -1302.353280  25696.835961 -10860.676219    647.934430
PC16 -22055.902603  31773.291816  16639.486106    138.196844
PC19  -5475.685625 -27290.720236   1876.108894   -638.630325
PC20   6753.583845 -21073.842853  16988.686049    566.322400
PC21 -15786.283353   1713.702300 -22939.109149   -380.853600
PC22 -15089.872740 -17997.596285 -15060.812453   -590.445419
PC23  23044.068753  13193.239781   8589.060344    -49.277109
PC24 -15150.956363  11066.155544  20662.862525   -109.078027
PC25   7260.780633  17281.229373  20663.306117   -679.273376
PC26 -26276.493397      2.807686   9440.401933     -6.515878
PC27  22981.968685  -9358.426615 -12793.221623     19.787870
PC28  15082.497546   7109.180489 -22372.631742     12.142379
PC29   1716.765022 -20428.523882  18924.794434     12.566485
PC30  17617.156478 -21348.821092   3606.344900    502.881010
PC32  15820.963081  -1704.117405  22931.671247   -807.072925
PC33   5583.283948  27279.968699  -1959.024241   -644.700869
PC34 -16932.206655  21670.722853  -4701.913148   -315.172690
PC35 -14369.705426  -7879.519288  22575.334358    455.606649
PC36  -6248.391024 -17413.645739 -20863.693911   -173.625204
PC37  26576.692501   1508.444113  -8316.889589   -172.950667
PC38 -14753.108587  18991.749509 -34643.453642     23.741524
PC39 -24602.288285  32291.821749  11025.521224     -0.426343
PC40  -9406.750242  35261.542124  21294.140449     -4.027063
PC41  15044.731531  18397.185967  14671.062695    -72.090442
PC42  -7447.517232  20263.162823 -17657.164522   -282.378039
PC43  -2408.028866  20793.965755 -18455.809303     13.843455
PC44 -22647.301504   9957.902740  12875.583418     47.828303
PC45 -23293.665227 -12969.815444  -8274.003911    859.115961
PC46  13391.448852 -11918.645563 -21368.640964   -537.475117
PE01 -18105.337953 -23095.075465  -3874.741784   -526.674036
PE02  18198.833645  23038.529042   3719.269374    324.259636
PE03   8254.958908  20648.788305  19535.857565   -599.134414
PE04 -17357.072993   -777.913115 -23962.778774  -1113.924641
PE05  -5897.007840  28793.227301   3523.001884   -144.688837
PE07  16398.813446 -20074.218998  14285.244890   -704.761912
PE08  17241.509072    593.123340  24048.249277   -597.554988
PE09 -16297.712028  20073.399910 -14422.983610   -656.037327
PE10 -28763.790614   7015.977055    278.492890   -476.340485
PE11 -24764.374600  12768.933382 -10003.028932   2251.810509
PE12 -27950.048155    378.987884   9723.128181   -165.352454
PE13  25220.504999 -12413.642009   9264.715561    430.562891
PE14  17688.187977   9443.829213 -24079.271444  -1722.268805
PE15  27874.506027   -326.083941  -9944.128869    720.869600
PE18 -18598.167943   6358.753933  16716.680520   -984.669714
PE19  -6377.501763 -22584.798951 -18039.681641  -4550.684166
PE21  -3401.205472 -22451.498767 -18980.660422   -757.314043
PE24 -15191.539957   7993.842424  24111.189881   -832.924342
PE25   3107.794378  22340.016143  19180.642597   -587.468341
PE26   6786.521332 -17212.665444  23100.705105  -1604.708179
PE27  14335.417734  -8983.485517 -24277.761052   -390.389552
PE30  23541.966017  10454.379655 -14573.535560   -830.939863
PE31 -23475.487041  -9631.285642  15257.530201   -503.412028
PE33 -14074.553843 -11880.904418  23171.779759   -453.653765
PE34  14258.215281  11781.975879 -23114.662167     -4.151737
PE36  -7802.250376  17110.179361 -22861.989249   -430.422286
PG01   6965.978607  13700.675898 -22013.991692    285.185815
PG02   3210.371742 -16031.684770  21614.752835   -646.279500
PG03  10649.883137  22880.806864  -8572.191457   -349.754236
PG04   1465.926247  22062.243706  14649.958452   -119.781451
PG05   -833.893702 -19709.045348  17546.269258    -96.405530
PG06  25192.098806  -6903.778348   5091.803099    458.408102
PG07  21568.425649   7367.287446  14453.214905    308.120566
PG08  -4645.064021  25178.058509  -6360.283655    -84.327852
PG09  10673.593734  12898.656799  20535.655891   -296.979763
PG10 -19427.007429  -5712.059965 -17198.811396     -2.966494
PG11  18304.575275 -12097.156197  14942.031193    -16.018143
PG12  -8157.678582 -23599.141987  -9471.124280   -277.200529
PG13  13092.435552 -22991.358587     94.492700    386.139396
PG14  19776.219144   7587.888467 -16083.105232   -104.046078
PG15   1277.198063 -25600.346815  -6765.450831    -29.601239
PG16  -6736.131274  15250.531060  20288.315866   -523.897791
PG17  16338.288668  -2430.413012 -20376.040454    658.403934
PG18 -22057.280779  -6442.448808  13431.192926     50.939047
PG19  18095.224172 -11812.339780 -15513.456430    209.743122
PG20  10820.238858 -11205.016832  21516.129978    487.013438
PG21  -2565.047160  15449.726890 -20721.198898    159.524895
PG22 -17403.239626  14990.835401 -12763.658695    326.562469
PG24  -3114.817642 -15627.754891 -21559.891821    137.943968
PG25 -17323.993484 -20277.591335   1150.618013    371.238149
PG26 -13853.786516   7897.565590  21178.664936    228.184985
PG27 -12646.359405  22506.250659   5059.802003    212.229977
PG28  16104.135421  -1214.295862 -20531.981339    338.595446
PG29  -8567.660353 -14133.010750  20726.537834   -550.949266
PG30  26357.017513   -237.659921   4338.829865   -536.907042
PG31 -25027.042011   7351.823800   6024.575424   -193.094303
PG32 -16898.915540   5821.149269 -19434.409999   -231.149909
PJ02 -26222.755693  21503.773392  30096.142305     -4.887408
PJ03 -35252.845648  22617.444726   -573.853448     -1.530495
PR01  -5801.456958  19513.230819 -15381.568928     14.633632
PR02   2686.365564  25152.821680   3037.088457    -22.642557
PR03   9500.097285  15181.297376  18175.587193     63.581583
PR04  10618.238727  -2912.245278  23032.318160    157.325422
PR05   6166.178914 -19499.612693  15268.690142     99.515204
PR07  -9620.026074 -14630.195276 -18538.660281     40.862292
PR08 -10684.751431   3070.614397 -22904.713274    -67.137149
PR09  -9596.467813 -14667.858650 -18476.342600     76.321535
PR11 -21901.638591  -4017.456728  12443.654103     27.666304
PR12  -8568.686356   7902.571693  22721.746374     21.181829
PR13   8245.879941  14314.887444  19428.311683    -26.721668
PR14  21811.124721  12706.125005   3764.484390     24.274850
PR15  21521.521723   3616.767352 -13185.251040     93.755594
PR17  12842.022726   3427.306460 -21753.928441    560.509218
PR18  21721.999535  -8246.909746 -10560.016725     42.072748
PR19  20240.646711 -14706.629420   4930.664118   -203.429873
PR20   4802.943926 -13704.598594  20985.494056    -78.250492
PR21 -14078.933196  -2267.077321  21157.642387   -333.133865
PR24  -3544.388489  13936.200449 -21060.119477    114.179423
PR25 -22252.325580   7612.794968   9893.382008     13.099759
EOF
